start=new Date('2022-04-29T00:00:00.000Z').valueOf();
sats=[{"APOAPSIS":"540.888","MEAN_MOTION":"15.08851675","OBJECT_ID":"2022-001Q","SITE":"AFETR","DECAY_DATE":null,"EPOCH":"2022-04-28T14:00:01.000224","RCS_SIZE":"LARGE","MEAN_ELEMENT_THEORY":"SGP4","LAUNCH_DATE":"2022-01-06","TLE_LINE2":"2 50817  53.2182  23.8086 0001703  55.3100 206.1220 15.08851675  3604","OBJECT_NAME":"STARLINK-3341","MEAN_MOTION_DOT":"0.00015280","NORAD_CAT_ID":"50817","SEMIMAJOR_AXIS":"6917.845","PERIOD":"95.437","RA_OF_ASC_NODE":"23.8086","REV_AT_EPOCH":"360","INCLINATION":"53.2182","ELEMENT_SET_NO":"999","ECCENTRICITY":"0.00017030","GP_ID":"202219367","ARG_OF_PERICENTER":"55.3100","BSTAR":"0.00097577000000","MEAN_MOTION_DDOT":"0.0000000000000","CENTER_NAME":"EARTH","REF_FRAME":"TEME","CLASSIFICATION_TYPE":"U","OBJECT_TYPE":"PAYLOAD","MEAN_ANOMALY":"206.1220","COUNTRY_CODE":"US","TIME_SYSTEM":"UTC","PERIAPSIS":"538.532","FILE":"3420061","EPHEMERIS_TYPE":"0","TLE_LINE1":"1 50817U 22001Q   22118.58334491  .00015280  00000-0  97577-3 0  9991"},{"RCS_SIZE":"LARGE","SITE":"AFETR","DECAY_DATE":null,"EPOCH":"2022-04-28T14:00:01.000224","MEAN_MOTION":"15.08846158","APOAPSIS":"540.872","OBJECT_ID":"2022-001R","OBJECT_NAME":"STARLINK-3336","TLE_LINE2":"2 50818  53.2162  23.8246 0001656  49.4301 312.0004 15.08846158  3602","MEAN_ELEMENT_THEORY":"SGP4","LAUNCH_DATE":"2022-01-06","INCLINATION":"53.2162","REV_AT_EPOCH":"360","RA_OF_ASC_NODE":"23.8246","SEMIMAJOR_AXIS":"6917.862","PERIOD":"95.437","MEAN_MOTION_DOT":"0.00017695","NORAD_CAT_ID":"50818","REF_FRAME":"TEME","CENTER_NAME":"EARTH","CLASSIFICATION_TYPE":"U","BSTAR":"0.00112690000000","MEAN_MOTION_DDOT":"0.0000000000000","ARG_OF_PERICENTER":"49.4301","ELEMENT_SET_NO":"999","ECCENTRICITY":"0.00016560","GP_ID":"202219619","PERIAPSIS":"538.581","TIME_SYSTEM":"UTC","FILE":"3420061","COUNTRY_CODE":"US","OBJECT_TYPE":"PAYLOAD","MEAN_ANOMALY":"312.0004","EPHEMERIS_TYPE":"0","TLE_LINE1":"1 50818U 22001R   22118.58334491  .00017695  00000-0  11269-2 0  9997"},{"TLE_LINE1":"1 50819U 22001S   22118.58334491  .00032208  00000-0  20327-2 0  9990","EPHEMERIS_TYPE":"0","COUNTRY_CODE":"US","MEAN_ANOMALY":"254.4829","OBJECT_TYPE":"PAYLOAD","FILE":"3420061","TIME_SYSTEM":"UTC","PERIAPSIS":"538.770","ARG_OF_PERICENTER":"66.9537","GP_ID":"202218869","ELEMENT_SET_NO":"999","ECCENTRICITY":"0.00014210","CLASSIFICATION_TYPE":"U","REF_FRAME":"TEME","CENTER_NAME":"EARTH","MEAN_MOTION_DDOT":"0.0000000000000","BSTAR":"0.00203270000000","PERIOD":"95.438","SEMIMAJOR_AXIS":"6917.888","NORAD_CAT_ID":"50819","MEAN_MOTION_DOT":"0.00032208","RA_OF_ASC_NODE":"23.8051","INCLINATION":"53.2168","REV_AT_EPOCH":"360","LAUNCH_DATE":"2022-01-06","MEAN_ELEMENT_THEORY":"SGP4","OBJECT_NAME":"STARLINK-3327","TLE_LINE2":"2 50819  53.2168  23.8051 0001421  66.9537 254.4829 15.08837385  3604","OBJECT_ID":"2022-001S","APOAPSIS":"540.736","MEAN_MOTION":"15.08837385","RCS_SIZE":"LARGE","EPOCH":"2022-04-28T14:00:01.000224","DECAY_DATE":null,"SITE":"AFETR"},{"CLASSIFICATION_TYPE":"U","CENTER_NAME":"EARTH","REF_FRAME":"TEME","MEAN_MOTION_DDOT":"0.0000000000000","BSTAR":"-0.00197350000000","ARG_OF_PERICENTER":"55.5978","GP_ID":"202225515","ECCENTRICITY":"0.00018050","ELEMENT_SET_NO":"999","RA_OF_ASC_NODE":"22.3329","INCLINATION":"53.2180","REV_AT_EPOCH":"1870","PERIOD":"95.436","SEMIMAJOR_AXIS":"6917.817","NORAD_CAT_ID":"50820","MEAN_MOTION_DOT":"-0.00031577","OBJECT_NAME":"STARLINK-3339","TLE_LINE2":"2 50820  53.2180  22.3329 0001805  55.5978  17.4923 15.08860775 18709","LAUNCH_DATE":"2022-01-06","MEAN_ELEMENT_THEORY":"SGP4","RCS_SIZE":"LARGE","EPOCH":"2022-04-28T22:00:01.999584","DECAY_DATE":null,"SITE":"AFETR","MEAN_MOTION":"15.08860775","APOAPSIS":"540.931","OBJECT_ID":"2022-001T","TLE_LINE1":"1 50820U 22001T   22118.91668981 -.00031577  00000-0 -19735-2 0  9994","EPHEMERIS_TYPE":"0","FILE":"3420277","TIME_SYSTEM":"UTC","PERIAPSIS":"538.433","COUNTRY_CODE":"US","OBJECT_TYPE":"PAYLOAD","MEAN_ANOMALY":"17.4923"},{"REV_AT_EPOCH":"360","RA_OF_ASC_NODE":"23.8261","INCLINATION":"53.2199","MEAN_MOTION_DOT":"0.00019314","NORAD_CAT_ID":"50821","SEMIMAJOR_AXIS":"6917.893","PERIOD":"95.438","BSTAR":"0.00122840000000","MEAN_MOTION_DDOT":"0.0000000000000","CENTER_NAME":"EARTH","REF_FRAME":"TEME","CLASSIFICATION_TYPE":"U","ECCENTRICITY":"0.00017870","ELEMENT_SET_NO":"999","GP_ID":"202219868","ARG_OF_PERICENTER":"50.8851","DECAY_DATE":null,"SITE":"AFETR","EPOCH":"2022-04-28T14:00:01.000224","RCS_SIZE":"LARGE","OBJECT_ID":"2022-001U","APOAPSIS":"540.994","MEAN_MOTION":"15.08835928","TLE_LINE2":"2 50821  53.2199  23.8261 0001787  50.8851  90.5582 15.08835928  3606","OBJECT_NAME":"STARLINK-3346","MEAN_ELEMENT_THEORY":"SGP4","LAUNCH_DATE":"2022-01-06","EPHEMERIS_TYPE":"0","TLE_LINE1":"1 50821U 22001U   22118.58334491  .00019314  00000-0  12284-2 0  9999","PERIAPSIS":"538.522","TIME_SYSTEM":"UTC","FILE":"3420061","OBJECT_TYPE":"PAYLOAD","MEAN_ANOMALY":"90.5582","COUNTRY_CODE":"US"},{"MEAN_MOTION_DOT":"-0.00033693","NORAD_CAT_ID":"50822","SEMIMAJOR_AXIS":"6917.780","PERIOD":"95.435","RA_OF_ASC_NODE":"22.7042","INCLINATION":"53.2200","REV_AT_EPOCH":"1866","ECCENTRICITY":"0.00017270","ELEMENT_SET_NO":"999","GP_ID":"202223427","ARG_OF_PERICENTER":"58.5756","BSTAR":"-0.00210690000000","MEAN_MOTION_DDOT":"0.0000000000000","REF_FRAME":"TEME","CENTER_NAME":"EARTH","CLASSIFICATION_TYPE":"U","MEAN_MOTION":"15.08872753","APOAPSIS":"540.840","OBJECT_ID":"2022-001V","SITE":"AFETR","DECAY_DATE":null,"EPOCH":"2022-04-28T20:00:01.000224","RCS_SIZE":"LARGE","MEAN_ELEMENT_THEORY":"SGP4","LAUNCH_DATE":"2022-01-06","TLE_LINE2":"2 50822  53.2200  22.7042 0001727  58.5756 321.5489 15.08872753 18660","OBJECT_NAME":"STARLINK-3343","EPHEMERIS_TYPE":"0","TLE_LINE1":"1 50822U 22001V   22118.83334491 -.00033693  00000-0 -21069-2 0  9997","MEAN_ANOMALY":"321.5489","OBJECT_TYPE":"PAYLOAD","COUNTRY_CODE":"US","TIME_SYSTEM":"UTC","PERIAPSIS":"538.451","FILE":"3420206"},{"EPHEMERIS_TYPE":"0","TLE_LINE1":"1 50823U 22001W   22118.83334491 -.00014599  00000-0 -90035-3 0  9992","PERIAPSIS":"538.426","TIME_SYSTEM":"UTC","FILE":"3420373","OBJECT_TYPE":"PAYLOAD","MEAN_ANOMALY":"151.7200","COUNTRY_CODE":"US","INCLINATION":"53.2176","RA_OF_ASC_NODE":"22.6853","REV_AT_EPOCH":"1869","MEAN_MOTION_DOT":"-0.00014599","NORAD_CAT_ID":"50823","SEMIMAJOR_AXIS":"6917.797","PERIOD":"95.436","BSTAR":"-0.00090035000000","MEAN_MOTION_DDOT":"0.0000000000000","REF_FRAME":"TEME","CENTER_NAME":"EARTH","CLASSIFICATION_TYPE":"U","ECCENTRICITY":"0.00017860","ELEMENT_SET_NO":"999","GP_ID":"202228525","ARG_OF_PERICENTER":"48.3906","SITE":"AFETR","DECAY_DATE":null,"EPOCH":"2022-04-28T20:00:01.000224","RCS_SIZE":"LARGE","APOAPSIS":"540.897","OBJECT_ID":"2022-001W","MEAN_MOTION":"15.08867390","TLE_LINE2":"2 50823  53.2176  22.6853 0001786  48.3906 151.7200 15.08867390 18699","OBJECT_NAME":"STARLINK-3334","MEAN_ELEMENT_THEORY":"SGP4","LAUNCH_DATE":"2022-01-06"},{"EPHEMERIS_TYPE":"0","TLE_LINE1":"1 50824U 22001X   22118.83334491 -.00036760  00000-0 -23013-2 0  9998","FILE":"3420373","TIME_SYSTEM":"UTC","PERIAPSIS":"538.525","OBJECT_TYPE":"PAYLOAD","MEAN_ANOMALY":"352.7807","COUNTRY_CODE":"US","REV_AT_EPOCH":"1868","INCLINATION":"53.2197","RA_OF_ASC_NODE":"22.7037","NORAD_CAT_ID":"50824","MEAN_MOTION_DOT":"-0.00036760","PERIOD":"95.435","SEMIMAJOR_AXIS":"6917.779","MEAN_MOTION_DDOT":"0.0000000000000","BSTAR":"-0.00230130000000","CLASSIFICATION_TYPE":"U","REF_FRAME":"TEME","CENTER_NAME":"EARTH","GP_ID":"202228012","ELEMENT_SET_NO":"999","ECCENTRICITY":"0.00016170","ARG_OF_PERICENTER":"47.3600","EPOCH":"2022-04-28T20:00:01.000224","DECAY_DATE":null,"SITE":"AFETR","RCS_SIZE":"LARGE","APOAPSIS":"540.763","MEAN_MOTION":"15.08873201","OBJECT_ID":"2022-001X","TLE_LINE2":"2 50824  53.2197  22.7037 0001617  47.3600 352.7807 15.08873201 18684","OBJECT_NAME":"STARLINK-3340","LAUNCH_DATE":"2022-01-06","MEAN_ELEMENT_THEORY":"SGP4"},{"MEAN_ELEMENT_THEORY":"SGP4","LAUNCH_DATE":"2022-01-06","OBJECT_NAME":"STARLINK-3332","TLE_LINE2":"2 50825  53.2190  22.7053 0001660  57.3536 302.7844 15.08879490 18685","APOAPSIS":"540.773","MEAN_MOTION":"15.08879490","OBJECT_ID":"2022-001Y","RCS_SIZE":"LARGE","SITE":"AFETR","DECAY_DATE":null,"EPOCH":"2022-04-28T20:00:01.000224","ARG_OF_PERICENTER":"57.3536","ECCENTRICITY":"0.00016600","ELEMENT_SET_NO":"999","GP_ID":"202228524","CENTER_NAME":"EARTH","REF_FRAME":"TEME","CLASSIFICATION_TYPE":"U","BSTAR":"-0.00289810000000","MEAN_MOTION_DDOT":"0.0000000000000","SEMIMAJOR_AXIS":"6917.760","PERIOD":"95.435","MEAN_MOTION_DOT":"-0.00046166","NORAD_CAT_ID":"50825","RA_OF_ASC_NODE":"22.7053","INCLINATION":"53.2190","REV_AT_EPOCH":"1868","COUNTRY_CODE":"US","OBJECT_TYPE":"PAYLOAD","MEAN_ANOMALY":"302.7844","TIME_SYSTEM":"UTC","PERIAPSIS":"538.476","FILE":"3420373","TLE_LINE1":"1 50825U 22001Y   22118.83334491 -.00046166  00000-0 -28981-2 0  9999","EPHEMERIS_TYPE":"0"},{"CLASSIFICATION_TYPE":"U","REF_FRAME":"TEME","CENTER_NAME":"EARTH","MEAN_MOTION_DDOT":"0.0000000000000","BSTAR":"0.00090725000000","ARG_OF_PERICENTER":"45.3682","GP_ID":"202219620","ELEMENT_SET_NO":"999","ECCENTRICITY":"0.00016390","REV_AT_EPOCH":"359","INCLINATION":"53.2178","RA_OF_ASC_NODE":"23.8088","PERIOD":"95.437","SEMIMAJOR_AXIS":"6917.864","NORAD_CAT_ID":"50826","MEAN_MOTION_DOT":"0.00014182","OBJECT_NAME":"STARLINK-3337","TLE_LINE2":"2 50826  53.2178  23.8088 0001639  45.3682 156.0747 15.08845313  3590","LAUNCH_DATE":"2022-01-06","MEAN_ELEMENT_THEORY":"SGP4","RCS_SIZE":"LARGE","EPOCH":"2022-04-28T14:00:01.000224","SITE":"AFETR","DECAY_DATE":null,"APOAPSIS":"540.863","OBJECT_ID":"2022-001Z","MEAN_MOTION":"15.08845313","TLE_LINE1":"1 50826U 22001Z   22118.58334491  .00014182  00000-0  90725-3 0  9999","EPHEMERIS_TYPE":"0","FILE":"3420061","PERIAPSIS":"538.595","TIME_SYSTEM":"UTC","COUNTRY_CODE":"US","OBJECT_TYPE":"PAYLOAD","MEAN_ANOMALY":"156.0747"}];
